{
    "links": {
        "self": "http://www.neowsapp.com/rest/v1/neo/3789633?api_key=iIulBulltgU6a56xZRHN4H3l9WmuAYTsLGpBGhQ2"
    },
    "id": "3789633",
    "neo_reference_id": "3789633",
    "name": "(2017 WW13)",
    "designation": "2017 WW13",
    "nasa_jpl_url": "http://ssd.jpl.nasa.gov/sbdb.cgi?sstr=3789633",
    "absolute_magnitude_h": 24.9,
    "estimated_diameter": {
        "kilometers": {
            "estimated_diameter_min": 0.0278326768,
            "estimated_diameter_max": 0.0622357573
        },
        "meters": {
            "estimated_diameter_min": 27.8326768072,
            "estimated_diameter_max": 62.2357573367
        },
        "miles": {
            "estimated_diameter_min": 0.0172944182,
            "estimated_diameter_max": 0.0386714948
        },
        "feet": {
            "estimated_diameter_min": 91.3145593761,
            "estimated_diameter_max": 204.1855621004
        }
    },
    "is_potentially_hazardous_asteroid": false,
    "close_approach_data": [
        {
            "close_approach_date": "2017-11-11",
            "close_approach_date_full": "2017-Nov-11 03:07",
            "epoch_date_close_approach": 1510369620000,
            "relative_velocity": {
                "kilometers_per_second": "7.4122930651",
                "kilometers_per_hour": "26684.2550344551",
                "miles_per_hour": "16580.5583573813"
            },
            "miss_distance": {
                "astronomical": "0.0480520273",
                "lunar": "18.6922386197",
                "kilometers": "7188480.933261851",
                "miles": "4466714.9276055038"
            },
            "orbiting_body": "Earth"
        }
    ],
    "orbital_data": {
        "orbit_id": "2",
        "orbit_determination_date": "2017-11-27 06:24:34",
        "first_observation_date": "2017-11-21",
        "last_observation_date": "2017-11-27",
        "data_arc_in_days": 6,
        "observations_used": 42,
        "orbit_uncertainty": "8",
        "minimum_orbit_intersection": ".0375262",
        "jupiter_tisserand_invariant": "3.212",
        "epoch_osculation": "2458080.5",
        "eccentricity": ".5865260901932378",
        "semi_major_axis": "2.487226957267701",
        "inclination": ".7011422019734558",
        "ascending_node_longitude": "294.8924165564371",
        "orbital_period": "1432.753740576743",
        "perihelion_distance": "1.028403454598253",
        "perihelion_argument": "104.1249527466727",
        "aphelion_distance": "3.946050459937149",
        "perihelion_time": "2458061.409780130020",
        "mean_anomaly": "4.796692521930768",
        "mean_motion": ".2512643937366968",
        "equinox": "J2000",
        "orbit_class": {
            "orbit_class_type": "AMO",
            "orbit_class_description": "Near-Earth asteroid orbits similar to that of 1221 Amor",
            "orbit_class_range": "1.017 AU < q (perihelion) < 1.3 AU"
        }
    },
    "is_sentry_object": false
}